{"type": "FeatureCollection", "features": [ {"type": "Feature", "properties": {"norad_id": 32289, "name": "YAOGAN-3", "group": "resource", "lat": -47.54728067559577, "lon": 12.574962284472683, "alt_km": 606.0573154418807, "timestamp": "2025-12-03T04:52:29.297972+00:00", "meta": {"OBJECT_NAME": "YAOGAN-3", "OBJECT_ID": "2007-055A", "EPOCH": "2025-12-02T21:01:50.509056", "MEAN_MOTION": 14.89779371, "ECCENTRICITY": 0.0001512, "INCLINATION": 97.8377, "RA_OF_ASC_NODE": 3.5909, "ARG_OF_PERICENTER": 77.4664, "MEAN_ANOMALY": 282.6722, "EPHEMERIS_TYPE": 0, "CLASSIFICATION_TYPE": "U", "NORAD_CAT_ID": 32289, "ELEMENT_SET_NO": 999, "REV_AT_EPOCH": 97662, "BSTAR": 0.00035722, "MEAN_MOTION_DOT": 3.371e-05, "MEAN_MOTION_DDOT": 0}, "tle": {"line1": "1 32289U 07055A   25336.87627904  .00003371  00000+0  35722-3 0  9998", "line2": "2 32289  97.8377   3.5909 0001512  77.4664 282.6722 14.89779371976621"}}, "geometry": {"type": "Point", "coordinates": [12.574962284472683, -47.54728067559577]}}, {"type": "Feature", "properties": {"norad_id": 32376, "name": "COSMO-SKYMED 2", "group": "resource", "lat": 45.55511421304965, "lon": -13.211234467954908, "alt_km": 617.9113782879422, "timestamp": "2025-12-03T04:52:29.297983+00:00", "meta": {"OBJECT_NAME": "COSMO-SKYMED 2", "OBJECT_ID": "2007-059A", "EPOCH": "2025-12-02T20:10:18.992640", "MEAN_MOTION": 14.82145339, "ECCENTRICITY": 0.0001517, "INCLINATION": 97.8807, "RA_OF_ASC_NODE": 158.3132, "ARG_OF_PERICENTER": 88.4238, "MEAN_ANOMALY": 271.7148, "EPHEMERIS_TYPE": 0, "CLASSIFICATION_TYPE": "U", "NORAD_CAT_ID": 32376, "ELEMENT_SET_NO": 999, "REV_AT_EPOCH": 97291, "BSTAR": 0.000117, "MEAN_MOTION_DOT": 8.79e-06, "MEAN_MOTION_DDOT": 0}, "tle": {"line1": "1 32376U 07059A   25336.84049760  .00000879  00000+0  11700-3 0  9994", "line2": "2 32376  97.8807 158.3132 0001517  88.4238 271.7148 14.82145339972910"}}, "geometry": {"type": "Point", "coordinates": [-13.211234467954908, 45.55511421304965]}}, {"type": "Feature", "properties": {"norad_id": 32382, "name": "RADARSAT-2", "group": "resource", "lat": 69.05503083389188, "lon": -41.29907007921124, "alt_km": 784.3246331884529, "timestamp": "2025-12-03T04:52:29.297993+00:00", "meta": {"OBJECT_NAME": "RADARSAT-2", "OBJECT_ID": "2007-061A", "EPOCH": "2025-12-02T20:08:54.107232", "MEAN_MOTION": 14.29983351, "ECCENTRICITY": 0.0001079, "INCLINATION": 98.58, "RA_OF_ASC_NODE": 341.5735, "ARG_OF_PERICENTER": 90.8246, "MEAN_ANOMALY": 269.306, "EPHEMERIS_TYPE": 0, "CLASSIFICATION_TYPE": "U", "NORAD_CAT_ID": 32382, "ELEMENT_SET_NO": 999, "REV_AT_EPOCH": 93789, "BSTAR": 6.7325e-05, "MEAN_MOTION_DOT": 1.3e-06, "MEAN_MOTION_DDOT": 0}, "tle": {"line1": "1 32382U 07061A   25336.83951513  .00000130  00000+0  67325-4 0  9996", "line2": "2 32382  98.5800 341.5735 0001079  90.8246 269.3060 14.29983351937891"}}, "geometry": {"type": "Point", "coordinates": [-41.29907007921124, 69.05503083389188]}}, {"type": "Feature", "properties": {"norad_id": 32783, "name": "CARTOSAT-2A", "group": "resource", "lat": 24.03349218257867, "lon": 23.822144782352122, "alt_km": 623.5849110886065, "timestamp": "2025-12-03T04:52:29.298005+00:00", "meta": {"OBJECT_NAME": "CARTOSAT-2A", "OBJECT_ID": "2008-021A", "EPOCH": "2025-12-02T20:38:47.753088", "MEAN_MOTION": 14.78906019, "ECCENTRICITY": 0.0012522, "INCLINATION": 97.7945, "RA_OF_ASC_NODE": 26.9919, "ARG_OF_PERICENTER": 35.485, "MEAN_ANOMALY": 324.7192, "EPHEMERIS_TYPE": 0, "CLASSIFICATION_TYPE": "U", "NORAD_CAT_ID": 32783, "ELEMENT_SET_NO": 999, "REV_AT_EPOCH": 94978, "BSTAR": 0.00017158, "MEAN_MOTION_DOT": 1.216e-05, "MEAN_MOTION_DDOT": 0}, "tle": {"line1": "1 32783U 08021A   25336.86027492  .00001216  00000+0  17158-3 0  9995", "line2": "2 32783  97.7945  26.9919 0012522  35.4850 324.7192 14.78906019949789"}}, "geometry": {"type": "Point", "coordinates": [23.822144782352122, 24.03349218257867]}}, {"type": "Feature", "properties": {"norad_id": 33320, "name": "HUANJING 1A (HJ-1A)", "group": "resource", "lat": 79.24284551509045, "lon": -169.0440076949134, "alt_km": 599.4017445087084, "timestamp": "2025-12-03T04:52:29.298021+00:00", "meta": {"OBJECT_NAME": "HUANJING 1A (HJ-1A)", "OBJECT_ID": "2008-041A", "EPOCH": "2025-12-02T20:20:36.060576", "MEAN_MOTION": 14.83342967, "ECCENTRICITY": 0.0020663, "INCLINATION": 97.6535, "RA_OF_ASC_NODE": 325.56, "ARG_OF_PERICENTER": 64.9998, "MEAN_ANOMALY": 295.336, "EPHEMERIS_TYPE": 0, "CLASSIFICATION_TYPE": "U", "NORAD_CAT_ID": 33320, "ELEMENT_SET_NO": 999, "REV_AT_EPOCH": 92929, "BSTAR": 0.00025105, "MEAN_MOTION_DOT": 2.013e-05, "MEAN_MOTION_DDOT": 0}, "tle": {"line1": "1 33320U 08041A   25336.84763959  .00002013  00000+0  25105-3 0  9995", "line2": "2 33320  97.6535 325.5600 0020663  64.9998 295.3360 14.83342967929297"}}, "geometry": {"type": "Point", "coordinates": [-169.0440076949134, 79.24284551509045]}}, {"type": "Feature", "properties": {"norad_id": 33321, "name": "HUANJING 1B (HJ-1B)", "group": "resource", "lat": -22.202901321713508, "lon": -27.237192946135416, "alt_km": 642.4106778889436, "timestamp": "2025-12-03T04:52:29.298031+00:00", "meta": {"OBJECT_NAME": "HUANJING 1B (HJ-1B)", "OBJECT_ID": "2008-041B", "EPOCH": "2025-12-02T20:52:41.187360", "MEAN_MOTION": 14.82779275, "ECCENTRICITY": 0.0038144, "INCLINATION": 97.6396, "RA_OF_ASC_NODE": 329.304, "ARG_OF_PERICENTER": 106.9623, "MEAN_ANOMALY": 253.5777, "EPHEMERIS_TYPE": 0, "CLASSIFICATION_TYPE": "U", "NORAD_CAT_ID": 33321, "ELEMENT_SET_NO": 999, "REV_AT_EPOCH": 92931, "BSTAR": 0.00019707, "MEAN_MOTION_DOT": 1.562e-05, "MEAN_MOTION_DDOT": 0}, "tle": {"line1": "1 33321U 08041B   25336.86992115  .00001562  00000+0  19707-3 0  9995", "line2": "2 33321  97.6396 329.3040 0038144 106.9623 253.5777 14.82779275929314"}}, "geometry": {"type": "Point", "coordinates": [-27.237192946135416, -22.202901321713508]}}, {"type": "Feature", "properties": {"norad_id": 33331, "name": "GEOEYE 1", "group": "resource", "lat": -40.497194105069404, "lon": -138.40645454509945, "alt_km": 684.5668921951346, "timestamp": "2025-12-03T04:52:29.298042+00:00", "meta": {"OBJECT_NAME": "GEOEYE 1", "OBJECT_ID": "2008-042A", "EPOCH": "2025-12-02T19:40:18.941088", "MEAN_MOTION": 14.64789869, "ECCENTRICITY": 0.0003015, "INCLINATION": 98.1264, "RA_OF_ASC_NODE": 48.2238, "ARG_OF_PERICENTER": 319.6596, "MEAN_ANOMALY": 40.4383, "EPHEMERIS_TYPE": 0, "CLASSIFICATION_TYPE": "U", "NORAD_CAT_ID": 33331, "ELEMENT_SET_NO": 999, "REV_AT_EPOCH": 92140, "BSTAR": 0.00016732, "MEAN_MOTION_DOT": 8.45e-06, "MEAN_MOTION_DDOT": 0}, "tle": {"line1": "1 33331U 08042A   25336.81966367  .00000845  00000+0  16732-3 0  9990", "line2": "2 33331  98.1264  48.2238 0003015 319.6596  40.4383 14.64789869921400"}}, "geometry": {"type": "Point", "coordinates": [-138.40645454509945, -40.497194105069404]}}, {"type": "Feature", "properties": {"norad_id": 33396, "name": "THEOS", "group": "resource", "lat": 9.603801187996249, "lon": -142.9612412295851, "alt_km": 826.3626489299104, "timestamp": "2025-12-03T04:52:29.298052+00:00", "meta": {"OBJECT_NAME": "THEOS", "OBJECT_ID": "2008-049A", "EPOCH": "2025-12-02T19:37:16.350240", "MEAN_MOTION": 14.20092918, "ECCENTRICITY": 0.000109, "INCLINATION": 98.5882, "RA_OF_ASC_NODE": 35.1993, "ARG_OF_PERICENTER": 100.6857, "MEAN_ANOMALY": 259.4442, "EPHEMERIS_TYPE": 0, "CLASSIFICATION_TYPE": "U", "NORAD_CAT_ID": 33396, "ELEMENT_SET_NO": 999, "REV_AT_EPOCH": 89009, "BSTAR": 6.7854e-05, "MEAN_MOTION_DOT": 1.02e-06, "MEAN_MOTION_DDOT": 0}, "tle": {"line1": "1 33396U 08049A   25336.81755035  .00000102  00000+0  67854-4 0  9994", "line2": "2 33396  98.5882  35.1993 0001090 100.6857 259.4442 14.20092918890095"}}, "geometry": {"type": "Point", "coordinates": [-142.9612412295851, 9.603801187996249]}}, {"type": "Feature", "properties": {"norad_id": 33412, "name": "COSMO-SKYMED 3", "group": "resource", "lat": -37.22107475332745, "lon": 1.421101607033215, "alt_km": 546.8772445939658, "timestamp": "2025-12-03T04:52:29.298062+00:00", "meta": {"OBJECT_NAME": "COSMO-SKYMED 3", "OBJECT_ID": "2008-054A", "EPOCH": "2025-12-02T19:56:01.636800", "MEAN_MOTION": 15.05203544, "ECCENTRICITY": 0.0015354, "INCLINATION": 97.8472, "RA_OF_ASC_NODE": 187.0561, "ARG_OF_PERICENTER": 206.8996, "MEAN_ANOMALY": 153.1435, "EPHEMERIS_TYPE": 0, "CLASSIFICATION_TYPE": "U", "NORAD_CAT_ID": 33412, "ELEMENT_SET_NO": 999, "REV_AT_EPOCH": 92738, "BSTAR": 0.00040811, "MEAN_MOTION_DOT": 5.774e-05, "MEAN_MOTION_DDOT": 0}, "tle": {"line1": "1 33412U 08054A   25336.83057450  .00005774  00000+0  40811-3 0  9990", "line2": "2 33412  97.8472 187.0561 0015354 206.8996 153.1435 15.05203544927388"}}, "geometry": {"type": "Point", "coordinates": [1.421101607033215, -37.22107475332745]}}, {"type": "Feature", "properties": {"norad_id": 33446, "name": "YAOGAN-4", "group": "resource", "lat": -72.39523325860286, "lon": 61.385717791025826, "alt_km": 630.2464971070976, "timestamp": "2025-12-03T04:52:29.298072+00:00", "meta": {"OBJECT_NAME": "YAOGAN-4", "OBJECT_ID": "2008-061A", "EPOCH": "2025-12-02T19:37:56.076096", "MEAN_MOTION": 14.82631045, "ECCENTRICITY": 0.0014458, "INCLINATION": 97.9168, "RA_OF_ASC_NODE": 267.0155, "ARG_OF_PERICENTER": 356.4345, "MEAN_ANOMALY": 3.6763, "EPHEMERIS_TYPE": 0, "CLASSIFICATION_TYPE": "U", "NORAD_CAT_ID": 33446, "ELEMENT_SET_NO": 999, "REV_AT_EPOCH": 91656, "BSTAR": 0.00026598, "MEAN_MOTION_DOT": 2.092e-05, "MEAN_MOTION_DDOT": 0}, "tle": {"line1": "1 33446U 08061A   25336.81801014  .00002092  00000+0  26598-3 0  9992", "line2": "2 33446  97.9168 267.0155 0014458 356.4345   3.6763 14.82631045916566"}}, "geometry": {"type": "Point", "coordinates": [61.385717791025826, -72.39523325860286]}}]}